IRIDIUM 112             
1 41925U 17003J   26011.92183008  .00000220  00000+0  71351-4 0  9997
2 41925  86.4004 153.6121 0001915  99.8322 260.3090 14.34218970470878
IRIDIUM 111             
1 41926U 17003K   26011.90914613  .00000170  00000+0  53485-4 0  9992
2 41926  86.4007 153.6844 0002103  96.4184 263.7251 14.34218315470850
IRIDIUM 113             
1 42803U 17039A   26011.95887814  .00000169  00000+0  53452-4 0  9995
2 42803  86.3957  27.4579 0002145  95.3703 264.7738 14.34218974448792
IRIDIUM 123             
1 42804U 17039B   26011.86082208  .00000026  00000+0  23645-5 0  9994
2 42804  86.3939  58.9826 0002507  96.1355 264.0126 14.34217738447544
IRIDIUM 120             
1 42805U 17039C   26011.95253551  .00000154  00000+0  47828-4 0  9996
2 42805  86.3946  27.2633 0002267  84.2752 275.8702 14.34218893448780
IRIDIUM 115             
1 42806U 17039D   26011.98551639  .00000355  00000+0  99473-4 0  9994
2 42806  86.4482  27.3565 0002710  87.6092 272.5420 14.43284648451730
IRIDIUM 118             
1 42807U 17039E   26011.82276532  .00000076  00000+0  20068-4 0  9998
2 42807  86.3943  58.9973 0002216  99.2177 260.9270 14.34218098447532
IRIDIUM 117             
1 42808U 17039F   26011.63248711  .00000253  00000+0  83204-4 0  9994
2 42808  86.3939  59.0360 0002386  96.8555 263.2912 14.34218955447532
